NORAD_CAT_ID,OBJECT_NAME,OBJECT_TYPE,EPOCH,MEAN_MOTION,ECCENTRICITY,INCLINATION,RA_OF_ASC_NODE,ARG_OF_PERICENTER,MEAN_ANOMALY,BSTAR,MEAN_MOTION_DOT,MEAN_MOTION_DDOT,TLE_LINE0,TLE_LINE1,TLE_LINE2,SEMIMAJOR_AXIS,PERIOD,APOGEE,PERIGEE,DECAYED
52112.0,STARLINK-3734,PAYLOAD,2023-11-09 16:51:56,15.08855993,0.0002061,53.2154,299.3518,79.3015,280.8209,0.00054625,8.42e-05,0.0,0 STARLINK-3734,1 52112U 22029AA  23313.70273373  .00008420  00000-0  54625-3 0  9999,2 52112  53.2154 299.3518 0002061  79.3015 280.8209 15.08855993 92311,6917.832,95.437,541.122,538.271,0.0
52112.0,STARLINK-3734,PAYLOAD,2023-11-10 03:59:37,15.0884636,0.0001296,53.2168,297.2719,97.8958,262.2181,1.8185e-05,2e-08,0.0,0 STARLINK-3734,1 52112U 22029AA  23314.16641100  .00000002  00000-0  18185-4 0  9997,2 52112  53.2168 297.2719 0001296  97.8958 262.2181 15.08846360 92384,6917.861,95.437,540.623,538.829,0.0
52112.0,STARLINK-3734,PAYLOAD,2023-11-10 05:35:01,15.08841877,0.0001361,53.2164,296.973,85.6231,274.4917,-5.6358e-05,-1.185e-05,0.0,0 STARLINK-3734,1 52112U 22029AA  23314.23265190 -.00001185  00000-0 -56358-4 0  9995,2 52112  53.2164 296.9730 0001361  85.6231 274.4917 15.08841877 92392,6917.875,95.437,540.681,538.798,0.0
52112.0,STARLINK-3734,PAYLOAD,2023-11-11 08:36:34,15.08855253,0.0001372,53.2174,291.916,89.8767,270.2382,0.00042032,6.411e-05,0.0,0 STARLINK-3734,1 52112U 22029AA  23315.35872831  .00006411  00000-0  42032-3 0  9993,2 52112  53.2174 291.9160 0001372  89.8767 270.2382 15.08855253 92569,6917.834,95.437,540.648,538.75,0.0
52112.0,STARLINK-3734,PAYLOAD,2023-11-12 03:41:11,15.08849076,0.000153,53.2167,288.3424,115.6748,244.4403,0.00022328,3.268e-05,0.0,0 STARLINK-3734,1 52112U 22029AA  23316.15360985  .00003268  00000-0  22328-3 0  9997,2 52112  53.2167 288.3424 0001530 115.6748 244.4403 15.08849076 92683,6917.853,95.437,540.776,538.659,0.0
52112.0,STARLINK-3734,PAYLOAD,2023-11-12 08:27:21,15.08852701,0.0001232,53.2163,287.4561,94.0973,266.016,0.00039239,5.965e-05,0.0,0 STARLINK-3734,1 52112U 22029AA  23316.35232844  .00005965  00000-0  39239-3 0  9996,2 52112  53.2163 287.4561 0001232  94.0973 266.0160 15.08852701 92713,6917.842,95.437,540.559,538.854,0.0
52112.0,STARLINK-3734,PAYLOAD,2023-11-12 14:48:53,15.08851206,0.0001167,53.2154,286.2657,90.8332,269.2794,0.00037197,5.639e-05,0.0,0 STARLINK-3734,1 52112U 22029AA  23316.61728863  .00005639  00000-0  37197-3 0  9995,2 52112  53.2154 286.2657 0001167  90.8332 269.2794 15.08851206 92757,6917.846,95.437,540.518,538.904,0.0
52112.0,STARLINK-3734,PAYLOAD,2023-11-13 03:31:59,15.08837174,0.0001343,53.2167,283.8875,91.1107,269.0039,-5.9095e-05,-1.228e-05,0.0,0 STARLINK-3734,1 52112U 22029AA  23317.14721221 -.00001228  00000-0 -59095-4 0  9999,2 52112  53.2167 283.8875 0001343  91.1107 269.0039 15.08837174 92833,6917.889,95.438,540.683,538.825,0.0
52112.0,STARLINK-3734,PAYLOAD,2023-11-13 08:18:08,15.08847413,0.0001437,53.2168,282.9966,96.3854,263.7302,0.00016596,2.355e-05,0.0,0 STARLINK-3734,1 52112U 22029AA  23317.34592867  .00002355  00000-0  16596-3 0  9991,2 52112  53.2168 282.9966 0001437  96.3854 263.7302 15.08847413 92869,6917.858,95.437,540.717,538.729,0.0
52112.0,STARLINK-3734,PAYLOAD,2023-11-13 14:39:40,15.08842179,0.0001231,53.2157,281.8049,85.0055,275.1077,9.7058e-05,1.257e-05,0.0,0 STARLINK-3734,1 52112U 22029AA  23317.61089054  .00001257  00000-0  97058-4 0  9993,2 52112  53.2157 281.8049 0001231  85.0055 275.1077 15.08842179 92902,6917.874,95.437,540.59,538.887,0.0
52112.0,STARLINK-3734,PAYLOAD,2023-11-14 03:22:46,15.0883517,0.0001387,53.2162,279.4273,93.2856,266.8295,-3.6869e-06,-3.47e-06,0.0,0 STARLINK-3734,1 52112U 22029AA  23318.14081659 -.00000347  00000-0 -36869-5 0  9990,2 52112  53.2162 279.4273 0001387  93.2856 266.8295 15.08835170 92982,6917.895,95.438,540.72,538.801,0.0
52112.0,STARLINK-3734,PAYLOAD,2023-11-14 06:33:32,15.08839712,0.0001551,53.2169,278.8338,85.6344,274.4825,5.3237e-05,5.59e-06,0.0,0 STARLINK-3734,1 52112U 22029AA  23318.27329480  .00000559  00000-0  53237-4 0  9991,2 52112  53.2169 278.8338 0001551  85.6344 274.4825 15.08839712 93008,6917.881,95.438,540.819,538.673,0.0
52112.0,STARLINK-3734,PAYLOAD,2023-11-15 04:48:56,15.08837852,0.0001635,53.2173,274.6695,79.1633,280.9543,6.2882e-06,-1.88e-06,0.0,0 STARLINK-3734,1 52112U 22029AA  23319.20065928 -.00000188  00000-0  62882-5 0  9995,2 52112  53.2173 274.6695 0001635  79.1633 280.9543 15.08837852 93142,6917.887,95.438,540.883,538.621,0.0
52112.0,STARLINK-3734,PAYLOAD,2023-11-15 14:21:15,15.08841992,0.0001733,53.2179,272.8873,83.9019,276.217,8.9679e-05,1.14e-05,0.0,0 STARLINK-3734,1 52112U 22029AA  23319.59809825  .00001140  00000-0  89679-4 0  9999,2 52112  53.2179 272.8873 0001733  83.9019 276.2170 15.08841992 93207,6917.874,95.437,540.938,538.54,0.0
52112.0,STARLINK-3734,PAYLOAD,2023-11-16 06:15:06,15.08852014,0.0001551,53.218,269.9131,102.5216,257.5949,0.00014907,2.086e-05,0.0,0 STARLINK-3734,1 52112U 22029AA  23320.26049049  .00002086  00000-0  14907-3 0  9990,2 52112  53.2180 269.9131 0001551 102.5216 257.5949 15.08852014 93302,6917.844,95.437,540.782,538.636,0.0
52112.0,STARLINK-3734,PAYLOAD,2023-11-17 02:55:07,15.08840361,0.0001578,53.2182,266.0425,95.0284,265.0888,9.4478e-05,1.216e-05,0.0,0 STARLINK-3734,1 52112U 22029AA  23321.12161845  .00001216  00000-0  94478-4 0  9991,2 52112  53.2182 266.0425 0001578  95.0284 265.0888 15.08840361 93430,6917.879,95.438,540.836,538.653,0.0
52112.0,STARLINK-3734,PAYLOAD,2023-11-17 14:02:50,15.08837152,0.0001494,53.2182,263.9613,97.6783,262.4378,4.1804e-05,3.77e-06,0.0,0 STARLINK-3734,1 52112U 22029AA  23321.58530097  .00000377  00000-0  41804-4 0  9992,2 52112  53.2182 263.9613 0001494  97.6783 262.4378 15.08837152 93501,6917.889,95.438,540.788,538.721,0.0
52112.0,STARLINK-3734,PAYLOAD,2023-11-18 02:45:55,15.08840839,0.000161,53.2184,261.5812,97.9222,262.1953,-3.6945e-05,-8.76e-06,0.0,0 STARLINK-3734,1 52112U 22029AA  23322.11522069 -.00000876  00000-0 -36945-4 0  9998,2 52112  53.2184 261.5812 0001610  97.9222 262.1953 15.08840839 93589,6917.878,95.438,540.857,538.629,0.0
52112.0,STARLINK-3734,PAYLOAD,2023-11-18 20:15:09,15.08838038,0.0001771,53.2187,258.3096,110.1918,249.9265,0.00010278,1.348e-05,0.0,0 STARLINK-3734,1 52112U 22029AA  23322.84385822  .00001348  00000-0  10278-3 0  9995,2 52112  53.2187 258.3096 0001771 110.1918 249.9265 15.08838038 93697,6917.886,95.438,540.977,538.526,0.0
52112.0,STARLINK-3734,PAYLOAD,2023-11-19 02:36:41,15.08850333,0.0001576,53.2177,257.1232,104.9236,255.1931,7.0059e-05,8.27e-06,0.0,0 STARLINK-3734,1 52112U 22029AA  23323.10881208  .00000827  00000-0  70059-4 0  9999,2 52112  53.2177 257.1232 0001576 104.9236 255.1931 15.08850333 93738,6917.849,95.437,540.804,538.624,0.0
52112.0,STARLINK-3734,PAYLOAD,2023-11-19 12:09:01,15.08829414,0.0001672,53.2177,255.3393,97.4944,262.6238,0.00034619,5.224e-05,0.0,0 STARLINK-3734,1 52112U 22029AA  23323.50626170  .00005224  00000-0  34619-3 0  9995,2 52112  53.2177 255.3393 0001672  97.4944 262.6238 15.08829414 93790,6917.913,95.438,540.934,538.621,0.0
52112.0,STARLINK-3734,PAYLOAD,2023-11-19 20:05:56,15.08839703,0.0002073,53.2189,253.8525,100.5016,259.621,6.457e-05,7.4e-06,0.0,0 STARLINK-3734,1 52112U 22029AA  23323.83746099  .00000740  00000-0  64570-4 0  9992,2 52112  53.2189 253.8525 0002073 100.5016 259.6210 15.08839703 93849,6917.881,95.438,541.18,538.312,0.0
52112.0,STARLINK-3734,PAYLOAD,2023-11-20 11:59:47,15.08840517,0.0001394,53.2161,250.8796,86.2756,273.8395,7.6482e-05,9.3e-06,0.0,0 STARLINK-3734,1 52112U 22029AA  23324.49985965  .00000930  00000-0  76482-4 0  9998,2 52112  53.2161 250.8796 0001394  86.2756 273.8395 15.08840517 93940,6917.879,95.438,540.708,538.779,0.0
52112.0,STARLINK-3734,PAYLOAD,2023-11-21 02:18:15,15.08850322,0.0001521,53.2172,248.2051,91.2595,268.8572,8.5208e-05,1.069e-05,0.0,0 STARLINK-3734,1 52112U 22029AA  23325.09601256  .00001069  00000-0  85208-4 0  9993,2 52112  53.2172 248.2051 0001521  91.2595 268.8572 15.08850322 94033,6917.849,95.437,540.766,538.662,0.0
52112.0,STARLINK-3734,PAYLOAD,2023-11-21 05:29:01,15.08855615,0.0001546,53.2177,247.6095,84.2776,275.8393,0.00012011,1.625e-05,0.0,0 STARLINK-3734,1 52112U 22029AA  23325.22848872  .00001625  00000-0  12011-3 0  9994,2 52112  53.2177 247.6095 0001546  84.2776 275.8393 15.08855615 94050,6917.833,95.437,540.767,538.628,0.0
52112.0,STARLINK-3734,PAYLOAD,2023-11-22 03:44:26,15.08844976,0.0001706,53.2157,243.4465,80.7044,279.4141,0.00011645,1.566e-05,0.0,0 STARLINK-3734,1 52112U 22029AA  23326.15585736  .00001566  00000-0  11645-3 0  9990,2 52112  53.2157 243.4465 0001706  80.7044 279.4141 15.08844976 94194,6917.865,95.437,540.91,538.55,0.0
52112.0,STARLINK-3734,PAYLOAD,2023-11-23 01:59:49,15.08861607,0.0001564,53.2172,239.2831,89.7359,270.3813,0.00042712,6.52e-05,0.0,0 STARLINK-3734,1 52112U 22029AA  23327.08320824  .00006520  00000-0  42712-3 0  9992,2 52112  53.2172 239.2831 0001564  89.7359 270.3813 15.08861607 94333,6917.814,95.436,540.761,538.597,0.0
52112.0,STARLINK-3734,PAYLOAD,2023-11-23 22:39:51,15.08829445,0.000152,53.2157,235.4171,84.5275,275.5891,-0.00010091,-1.893e-05,0.0,0 STARLINK-3734,1 52112U 22029AA  23327.94434642 -.00001893  00000-0 -10091-3 0  9996,2 52112  53.2157 235.4171 0001520  84.5275 275.5891 15.08829445 94464,6917.913,95.438,540.829,538.726,0.0
52112.0,STARLINK-3734,PAYLOAD,2023-11-24 03:26:00,15.08830454,0.0001486,53.2166,234.5217,96.7233,263.3928,-8.1371e-05,-1.582e-05,0.0,0 STARLINK-3734,1 52112U 22029AA  23328.14306637 -.00001582  00000-0 -81371-4 0  9996,2 52112  53.2166 234.5217 0001486  96.7233 263.3928 15.08830454 94496,6917.91,95.438,540.803,538.747,0.0
52112.0,STARLINK-3734,PAYLOAD,2023-11-24 22:30:38,15.08847609,0.0001558,53.2168,230.955,76.9865,283.1301,6.0282e-05,6.72e-06,0.0,0 STARLINK-3734,1 52112U 22029AA  23328.93794330  .00000672  00000-0  60282-4 0  9999,2 52112  53.2168 230.9550 0001558  76.9865 283.1301 15.08847609 94618,6917.857,95.437,540.8,538.644,0.0
